#cP2021  1  1  0  0  0.00000000      96 ORBIT IGb14 HLM  IGS
## 2138 432000.00000000   900.00000000 59215 0.0000000000000
+   32   G01G02G03G04G05G06G07G08G09G10G11G12G13G14G15G16G17
+        G18G19G20G21G22G23G24G25G26G27G28G29G30G31G32  0  0
+          0  0  0  0  0  0  0  0  0  0  0  0  0  0  0  0  0
+          0  0  0  0  0  0  0  0  0  0  0  0  0  0  0  0  0
+          0  0  0  0  0  0  0  0  0  0  0  0  0  0  0  0  0
++         2  2  2  2  2  2  2  2  2  2  3  2  2  3  1  2  2
++         2  2  2  2  2  2  2  2  2  2  2  2  2  2  2  0  0
++         0  0  0  0  0  0  0  0  0  0  0  0  0  0  0  0  0
++         0  0  0  0  0  0  0  0  0  0  0  0  0  0  0  0  0
++         0  0  0  0  0  0  0  0  0  0  0  0  0  0  0  0  0
%c G  cc GPS ccc cccc cccc cccc cccc ccccc ccccc ccccc ccccc
%c cc cc ccc ccc cccc cccc cccc cccc ccccc ccccc ccccc ccccc
%f  1.2500000  1.025000000  0.00000000000  0.000000000000000
%f  0.0000000  0.000000000  0.00000000000  0.000000000000000
%i    0    0    0    0      0      0      0      0         0
%i    0    0    0    0      0      0      0      0         0
/* FINAL ORBIT COMBINATION FROM WEIGHTED AVERAGE OF:        
/* cod emr esa gfz grg jpl mit ngs sio                      
/* REFERENCED TO IGS TIME (IGST) AND TO WEIGHTED MEAN POLE: 
/* PCV:IGS14_2136 OL/AL:FES2004  NONE     Y  ORB:CMB CLK:CMB
*  2021  1  1 14 15  0.00000000
PG01 -13345.161666  13144.398386  18451.592341    787.164903  4  5  3  89       
PG02  13564.260151  10974.377815 -19367.460314   -561.172612  4  6  2  77       
PG03 -22808.780375  13246.926713  -2696.395134    -45.092890  5  5  4  91       
PG04 -16895.020783   4997.676710 -19886.495051   -169.296861  7  5  7 100       
PG05  22053.540232    314.514437 -15083.713514    -29.910905  6  6  6  84       
PG06   6189.852631  23021.315475 -11601.155252     -4.650691  5  1  5  84       
PG07  -6412.006676  24628.706597  -6318.598334      4.907011  6     3  90       
PG08 -21965.100577  -1895.218646  15030.498109     -5.076867  6  2  6  95       
PG09  -5602.821134  14605.194729 -21526.792813   -308.082102  5  2  7  79       
PG10   -869.830873 -15916.598069  21301.048301    -29.441397  3  5  3  79       
PG11 -15562.768434   4154.461940  20643.505211    -65.158879  6  9  2  63       
PG12  24602.637560  -9763.582569    293.282234     18.862263  9  7  4 101       
PG13  22243.552290  12021.009305   8193.646294     81.151617  5  2  1  88       
PG14  -2217.756900  16671.804122  20549.484526     77.501133  6  9  9  68       
PG15  21930.177780  -1118.793387  14833.844112   -179.348716  4  4  2  85       
PG16 -21747.965447  -2898.992818 -15520.732417   -258.825244  6  6  5  71       
PG17  10810.529941  20038.676482  14120.445303    374.624107  3  3  3  70       
PG18   5369.233707 -25607.434754  -4396.909082    337.778483  9  6  5 102       
PG19  16575.137318  19620.439659   6649.871867    -57.681170  5  4  5  70       
PG20  10390.918243 -19692.725544  14215.408741    525.308200  7  5  4  81       
PG21 -15458.700903   4138.389981  21894.254614     82.892416  5  5  3  89       
PG22 -24045.454553   9148.189198   6444.129251   -705.755068  6  5  1  67       
PG23  10523.720023 -18198.743016  16185.479997    113.888804  4  5  5  85       
PG24  14744.757706  -8706.653284  19974.880509      4.249946  3     6  89       
PG25  16731.393942 -17109.846447 -11467.098381     51.050220  8  7  7  91       
PG26 -13058.123047 -10123.020971 -20884.456984     23.327207  5  4  5  94       
PG27 -23387.508050 -12232.553171   4221.588846    -47.138455  5  5  5  99       
PG28   1122.783642  15579.190789  22074.193944    635.479103  5  4  3  83       
PG29   7386.886716 -12833.212795 -22084.145490   -267.459852  8  6  7  94       
PG30    526.570781  26119.917457   4132.580923   -361.984050  4  2  6  54       
PG31  -7788.461526 -21125.711875 -13781.762844    -91.270025  5  5  5  59       
PG32 -12551.587680 -19467.242739  13231.959105     11.758221  5  4  5  84       
*  2021  1  1 14 30  0.00000000
PG01 -13361.342509  10897.895308  19861.956351    787.159587  4  5  3 103       
PG02  13510.408737  13241.359040 -17984.467607   -561.176506  4  6  2  57       
PG03 -23041.966787  13097.409157    175.351552    -45.101729  5  5  4  82       
PG04 -18655.503451   3674.255151 -18561.702482   -169.299681  7  5  6  89       
PG05  20574.692428   1363.079522 -16996.065707    -29.911802  5  5  6  90       
PG06   5972.180503  24202.437299  -9039.067784     -4.650900  5  2  4  61       
PG07  -6674.879398  23686.915834  -8995.883625      4.920160  6  1  3  72       
PG08 -23236.321145  -2848.871478  12829.505075     -5.078273  5  3  6 101       
PG09  -7720.808267  13350.588232 -21687.710858   -308.085865  5  2  7  82       
PG10   1257.815065 -16964.634529  20428.011897    -29.449141  3  4  5  76       
PG11 -16544.933122   1906.910755  20181.356375    -65.149662  7  9  3  86       
PG12  24487.687142  -9466.574574   3179.110713     18.857593  9  7  4  78       
PG13  22719.655076  12694.275838   5475.471341     81.155299  4  3     66       
PG14  -4330.047427  17561.992122  19441.724948     77.508104  6  9  9  54       
PG15  23289.379952   -191.608103  12736.091754   -179.346163  4  4  2  83       
PG16 -20107.341258  -3710.390548 -17428.593520   -258.830061  6  6  5  84       
PG17   9379.802598  19180.490477  16240.392142    374.628196  2  3  3  69       
PG18   5565.905898 -24933.381619  -7164.437054    337.781246  9  6  5 101       
PG19  15716.857347  19182.667779   9342.777368    -57.676744  4  4  5  68       
PG20  11783.176721 -20368.567098  11990.747098    525.307743  7  5  4  62       
PG21 -15581.646896   1772.265860  22169.030553     82.895485  5  5  3  82       
PG22 -23493.162922   8402.683041   9061.589514   -705.749505  6  6  2  84       
PG23  12127.686691 -18896.735883  14133.822990    113.890619  5  6  6  89       
PG24  14929.521201  -6317.152527  20748.487879      4.249365  3     6  70       
PG25  17849.195284 -17441.090662  -8924.556606     51.056941  8  7  7  93       
PG26 -10998.242925 -11379.072887 -21395.513522     23.332409  5  4  5  90       
PG27 -23574.198741 -12563.173388   1378.533381    -47.145620  4  5  5  88       
PG28  -1069.907670  16457.981996  21428.203442    635.474607  5  4  4  76       
PG29   9422.331195 -11356.215888 -22122.091706   -267.466509  8  6  7  87       
PG30    170.950461  26408.977052   1335.204401   -361.989532  3  2  6  46       
PG31  -7454.821651 -22558.391861 -11448.135062    -91.272108  6  4  5  72       
PG32 -11074.178637 -18781.392740  15368.412110     11.760322  5  4  6 101       
*  2021  1  1 14 45  0.00000000
PG01 -13502.227657   8515.260582  20920.415310    787.154229  4  5  3  89       
PG02  13555.425967  15325.585747 -16275.434778   -561.180148  3  5  2  67       
PG03 -23004.743789  12790.000915   3044.056010    -45.110611  5  5  4  87       
PG04 -20337.459463   2529.667005 -16917.916493   -169.302462  7  4  6  95       
PG05  18986.187239   2596.040614 -18621.192911    -29.912602  5  6  6  66       
PG06   5812.960095  25093.339124  -6320.638786     -4.651065  5  2  4  37       
PG07  -6989.211413  22459.872210 -11511.908059      4.933181  6  2  3  79       
PG08 -24325.949470  -3611.274384  10411.036540     -5.080699  5  3  6  91       
PG09  -9897.393507  12207.011989 -21477.630900   -308.089564  4  3  7  83       
PG10   3228.135658 -18063.475570  19204.396451    -29.456925  3  4  6  79       
PG11 -17588.589819   -233.630569  19356.064357    -65.139983  7  8  3  77       
PG12  24099.991680  -9012.011970   6009.483176     18.852964  8  6  5 108       
PG13  22978.119222  13155.992148   2663.410031     81.159131  4  3  1  61       
PG14  -6266.753589  18491.091709  17999.215653     77.515057  7 10  9  70       
PG15  24457.929722    571.961627  10418.740641   -179.343986  4  4  3  85       
PG16 -18336.870708  -4700.162747 -19046.652558   -258.835276  5  6  5  90       
PG17   7717.423136  18287.324981  18089.075236    374.632404  2  3  3  85       
PG18   5798.340461 -23963.798489  -9808.275847    337.784075  8  6  6  86       
PG19  14588.147565  18625.221545  11873.774611    -57.672129  4  4  5  74       
PG20  12937.479239 -20942.427908   9556.198718    525.307649  7  5  4  71       
PG21 -15831.210028   -590.353899  22086.811835     82.898538  5  5  3  85       
PG22 -22747.184437   7462.941281  11522.849096   -705.743780  6  6  2  77       
PG23  13485.771281 -19544.049477  11838.144515    113.892505  5  6  6  85       
PG24  15232.084102  -3875.133360  21155.684091      4.248419  3     6  90       
PG25  18697.129454 -17674.096590  -6227.458955     51.063669  8  7  7  99       
PG26  -8970.494578 -12757.829282 -21540.572036     23.337540  5  5  6  75       
PG27 -23497.159589 -12728.671130  -1487.767226    -47.152783  4  5  5  96       
PG28  -3128.859286  17418.276915  20432.744266    635.470149  5  4  4  77       
PG29  11522.459350 -10004.937569 -21780.756763   -267.473302  7  6  7  76       
PG30   -168.759925  26396.193993  -1485.452550   -361.995068  3  3  6  48       
PG31  -7193.228695 -23730.176571  -8913.278803    -91.274299  6  4  5  83       
PG32  -9363.987149 -18066.390041  17243.782844     11.762382  5  4  6  82       
EOF
